<?xml version="1.0" encoding="UTF-8"?>
<kml xmlns="http://www.opengis.net/kml/2.2">
  <Document>
    <name>map</name>
    <description/>
    <Style id="icon-1526-01579B-nodesc-normal">
      <IconStyle>
        <color>ff9b5701</color>
        <scale>1</scale>
        <Icon>
          <href>https://www.gstatic.com/mapspro/images/stock/503-wht-blank_maps.png</href>
        </Icon>
      </IconStyle>
      <LabelStyle>
        <scale>0</scale>
      </LabelStyle>
      <BalloonStyle>
        <text><![CDATA[<h3>$[name]</h3>]]></text>
      </BalloonStyle>
    </Style>
    <Style id="icon-1526-01579B-nodesc-highlight">
      <IconStyle>
        <color>ff9b5701</color>
        <scale>1</scale>
        <Icon>
          <href>https://www.gstatic.com/mapspro/images/stock/503-wht-blank_maps.png</href>
        </Icon>
      </IconStyle>
      <LabelStyle>
        <scale>1</scale>
      </LabelStyle>
      <BalloonStyle>
        <text><![CDATA[<h3>$[name]</h3>]]></text>
      </BalloonStyle>
    </Style>
    <StyleMap id="icon-1526-01579B-nodesc">
      <Pair>
        <key>normal</key>
        <styleUrl>#icon-1526-01579B-nodesc-normal</styleUrl>
      </Pair>
      <Pair>
        <key>highlight</key>
        <styleUrl>#icon-1526-01579B-nodesc-highlight</styleUrl>
      </Pair>
    </StyleMap>
    <Style id="icon-1899-DB4436-nodesc-normal">
      <IconStyle>
        <color>ff3644db</color>
        <scale>1</scale>
        <Icon>
          <href>https://www.gstatic.com/mapspro/images/stock/503-wht-blank_maps.png</href>
        </Icon>
        <hotSpot x="32" xunits="pixels" y="64" yunits="insetPixels"/>
      </IconStyle>
      <LabelStyle>
        <scale>0</scale>
      </LabelStyle>
      <BalloonStyle>
        <text><![CDATA[<h3>$[name]</h3>]]></text>
      </BalloonStyle>
    </Style>
    <Style id="icon-1899-DB4436-nodesc-highlight">
      <IconStyle>
        <color>ff3644db</color>
        <scale>1</scale>
        <Icon>
          <href>https://www.gstatic.com/mapspro/images/stock/503-wht-blank_maps.png</href>
        </Icon>
        <hotSpot x="32" xunits="pixels" y="64" yunits="insetPixels"/>
      </IconStyle>
      <LabelStyle>
        <scale>1</scale>
      </LabelStyle>
      <BalloonStyle>
        <text><![CDATA[<h3>$[name]</h3>]]></text>
      </BalloonStyle>
    </Style>
    <StyleMap id="icon-1899-DB4436-nodesc">
      <Pair>
        <key>normal</key>
        <styleUrl>#icon-1899-DB4436-nodesc-normal</styleUrl>
      </Pair>
      <Pair>
        <key>highlight</key>
        <styleUrl>#icon-1899-DB4436-nodesc-highlight</styleUrl>
      </Pair>
    </StyleMap>
    <Style id="line-1267FF-5000-nodesc-normal">
      <LineStyle>
        <color>ffff6712</color>
        <width>5</width>
      </LineStyle>
      <BalloonStyle>
        <text><![CDATA[<h3>$[name]</h3>]]></text>
      </BalloonStyle>
    </Style>
    <Style id="line-1267FF-5000-nodesc-highlight">
      <LineStyle>
        <color>ffff6712</color>
        <width>7.5</width>
      </LineStyle>
      <BalloonStyle>
        <text><![CDATA[<h3>$[name]</h3>]]></text>
      </BalloonStyle>
    </Style>
    <StyleMap id="line-1267FF-5000-nodesc">
      <Pair>
        <key>normal</key>
        <styleUrl>#line-1267FF-5000-nodesc-normal</styleUrl>
      </Pair>
      <Pair>
        <key>highlight</key>
        <styleUrl>#line-1267FF-5000-nodesc-highlight</styleUrl>
      </Pair>
    </StyleMap>
    <Style id="poly-FF5252-1200-77-nodesc-normal">
      <LineStyle>
        <color>ff5252ff</color>
        <width>1.2</width>
      </LineStyle>
      <PolyStyle>
        <color>4d5252ff</color>
        <fill>1</fill>
        <outline>1</outline>
      </PolyStyle>
      <BalloonStyle>
        <text><![CDATA[<h3>$[name]</h3>]]></text>
      </BalloonStyle>
    </Style>
    <Style id="poly-FF5252-1200-77-nodesc-highlight">
      <LineStyle>
        <color>ff5252ff</color>
        <width>1.8</width>
      </LineStyle>
      <PolyStyle>
        <color>4d5252ff</color>
        <fill>1</fill>
        <outline>1</outline>
      </PolyStyle>
      <BalloonStyle>
        <text><![CDATA[<h3>$[name]</h3>]]></text>
      </BalloonStyle>
    </Style>
    <StyleMap id="poly-FF5252-1200-77-nodesc">
      <Pair>
        <key>normal</key>
        <styleUrl>#poly-FF5252-1200-77-nodesc-normal</styleUrl>
      </Pair>
      <Pair>
        <key>highlight</key>
        <styleUrl>#poly-FF5252-1200-77-nodesc-highlight</styleUrl>
      </Pair>
    </StyleMap>
    <Folder>
      <name>kohad</name>
      <Placemark>
        <name>kodu</name>
        <styleUrl>#poly-FF5252-1200-77-nodesc</styleUrl>
        <Polygon>
          <outerBoundaryIs>
            <LinearRing>
              <tessellate>1</tessellate>
              <coordinates>
                24.682534,59.4127742,0
                24.6828479,59.4127865,0
                24.6828398,59.4129994,0
                24.682813,59.4130868,0
                24.6823919,59.413084,0
                24.6824026,59.412781,0
                24.682534,59.4127742,0
              </coordinates>
            </LinearRing>
          </outerBoundaryIs>
        </Polygon>
      </Placemark>
      <Placemark>
        <name>Tallinna Tööstushariduskeskus</name>
        <styleUrl>#icon-1526-01579B-nodesc</styleUrl>
        <Point>
          <coordinates>
            24.7053671,59.4113272,0
          </coordinates>
        </Point>
      </Placemark>
    </Folder>
    <Folder>
      <name>Juhised lähtekohast Aiandi tn 12/2, 12915 Tallinn, Eesti sihtkohta Tallinn Industrial Education Center, Sõpruse puiestee, Tallinn</name>
      <Placemark>
        <name>Juhised lähtekohast Aiandi tn 12/2, 12915 Tallinn, Eesti sihtkohta Tallinn Industrial Education Center, Sõpruse puiestee, Tallinn</name>
        <styleUrl>#line-1267FF-5000-nodesc</styleUrl>
        <LineString>
          <tessellate>1</tessellate>
          <coordinates>
            24.68221,59.41289,0
            24.68221,59.41284,0
            24.68222,59.41225,0
            24.68248,59.41225,0
            24.68294,59.41225,0
            24.68359,59.41226,0
            24.68381,59.41226,0
            24.68403,59.41226,0
            24.68422,59.41226,0
            24.68435,59.41226,0
            24.68449,59.41228,0
            24.68465,59.41232,0
            24.68517,59.41248,0
            24.68531,59.41253,0
            24.68603,59.41276,0
            24.68615,59.4128,0
            24.68627,59.41282,0
            24.68767,59.41283,0
            24.6878,59.41282,0
            24.68793,59.41279,0
            24.68823,59.41272,0
            24.68843,59.41266,0
            24.68851,59.41265,0
            24.68879,59.41257,0
            24.68896,59.41253,0
            24.68912,59.4125,0
            24.68926,59.41245,0
            24.68953,59.41239,0
            24.68981,59.4123,0
            24.69026,59.41231,0
            24.69042,59.41231,0
            24.69052,59.41231,0
            24.69061,59.4123,0
            24.69073,59.41229,0
            24.691,59.41226,0
            24.69175,59.41227,0
            24.69181,59.41225,0
            24.69195,59.4121,0
            24.69199,59.41206,0
            24.692,59.41206,0
            24.69201,59.41206,0
            24.69202,59.41206,0
            24.69207,59.41205,0
            24.6935,59.41202,0
            24.6938,59.41219,0
            24.69419,59.4121,0
            24.69481,59.41277,0
            24.69528,59.41266,0
            24.69679,59.41231,0
            24.69744,59.41215,0
            24.69752,59.41213,0
            24.69885,59.41182,0
            24.69905,59.41177,0
            24.70035,59.41146,0
            24.70159,59.41116,0
            24.70186,59.4111,0
            24.70219,59.41101,0
            24.7028,59.41084,0
            24.70338,59.4107,0
            24.70369,59.41063,0
            24.70396,59.41057,0
            24.70461,59.41041,0
            24.70484,59.41035,0
            24.70504,59.4103,0
            24.70511,59.41028,0
            24.70522,59.41025,0
            24.70537,59.41046,0
            24.70549,59.41061,0
            24.70551,59.41063,0
            24.70551,59.41065,0
            24.70551,59.41068,0
            24.70552,59.41072,0
            24.70552,59.41075,0
            24.70554,59.41079,0
            24.70557,59.41082,0
            24.70552,59.41083,0
            24.7054,59.41086,0
            24.70523,59.41093,0
            24.70518,59.41099,0
            24.7051,59.41109,0
            24.7051,59.41113,0
            24.7052,59.41127,0
            24.70528,59.41132,0
            24.70537,59.41132,0
          </coordinates>
        </LineString>
      </Placemark>
      <Placemark>
        <name>Aiandi tn 12/2, 12915 Tallinn, Eesti</name>
        <styleUrl>#icon-1899-DB4436-nodesc</styleUrl>
        <Point>
          <coordinates>
            24.6822079,59.412894,0
          </coordinates>
        </Point>
      </Placemark>
      <Placemark>
        <name>Tallinn Industrial Education Center, Sõpruse puiestee, Tallinn</name>
        <styleUrl>#icon-1899-DB4436-nodesc</styleUrl>
        <Point>
          <coordinates>
            24.7053685,59.4113241,0
          </coordinates>
        </Point>
      </Placemark>
    </Folder>
  </Document>
</kml>
